STARLINK-2022           
1 47643U 21012Z   24110.60707190  .00011171  00000+0  76753-3 0  9999
2 47643  53.0534 265.0263 0001279  65.5938 294.5184 15.06404696176407
